{"epoch":1784799577,"count":18318,"objects":[{"id":"20580","name":"HST","type":"PAYLOAD","l1":"1 20580U 90037B   26203.21405009  .00005689  00000-0  17638-3 0  9994","l2":"2 20580  28.4723 201.1073 0002036 171.5650 188.4980 15.31110914793949"},{"id":"23802","name":"POLAR","type":"PAYLOAD","l1":"1 23802U 96013A   26202.69774953  .00000193  00000-0  00000-0 0  9999","l2":"2 23802  79.9018 226.6420 6505013 207.8918  92.1658  1.29846001145303"},{"id":"25560","name":"SWAS","type":"PAYLOAD","l1":"1 25560U 98071A   26203.19817026  .00003257  00000-0  20760-3 0  9995","l2":"2 25560  69.8955 137.2213 0007328 222.4214 137.6385 15.09779260502554"},{"id":"25867","name":"CXO","type":"PAYLOAD","l1":"1 25867U 99040B   26206.40147406  .00000689  00000-0  00000-0 0  9995","l2":"2 25867  56.6765 115.6641 7773461 309.9148   0.5404  0.37796798 17465"},{"id":"25989","name":"XMM","type":"PAYLOAD","l1":"1 25989U 99066A   26205.24911900  .00000048  00000-0  00000-0 0  9996","l2":"2 25989  64.2866 282.5076 4663791  64.2318   0.0628  0.50127611 23180"},{"id":"25994","name":"TERRA","type":"PAYLOAD","l1":"1 25994U 99068A   26203.91024720  .00000287  00000-0  67347-4 0  9997","l2":"2 25994  97.9435 252.0364 0003648 107.6896 356.9651 14.61127958414826"},{"id":"26410","name":"CLUSTER II-FM7","type":"PAYLOAD","l1":"1 26410U 00041A   26201.60182196  .00010308 -30415-5  00000-0 0  9993","l2":"2 26410 149.8020  56.9135 9091714 274.4939 359.4480  0.44850593 20460"},{"id":"26464","name":"CLUSTER II-FM8","type":"PAYLOAD","l1":"1 26464U 00045B   26202.20501148  .00010745 -27335-5  00000-0 0  9997","l2":"2 26464 149.9883  58.1996 9095449 275.6510   2.0942  0.44423605 20467"},{"id":"26702","name":"ODIN","type":"PAYLOAD","l1":"1 26702U 01007A   26203.09632161  .00602498  15103-3  16233-2 0  9995","l2":"2 26702  97.3694 246.6856 0004575 165.2192 194.9218 15.94340343394928"},{"id":"26998","name":"TIMED","type":"PAYLOAD","l1":"1 26998U 01055B   26203.86844239  .00001043  00000-0  98120-4 0  9994","l2":"2 26998  74.0674 163.1713 0002377 292.0310  68.0622 14.95357069336153"},{"id":"27640","name":"CORIOLIS","type":"PAYLOAD","l1":"1 27640U 03001A   26203.78192392  .00000080  00000-0  58158-4 0  9996","l2":"2 27640  98.7139 210.1248 0015153 108.9193 251.3627 14.19953401219276"},{"id":"27651","name":"SORCE","type":"PAYLOAD","l1":"1 27651U 03004A   26203.93454203  .00002295  00000-0  17410-3 0  9995","l2":"2 27651  39.9919  57.6963 0018555 306.4119  53.4964 15.03871624277281"},{"id":"27843","name":"MOST","type":"PAYLOAD","l1":"1 27843U 03031D   26203.47999572  .00000047  00000-0  41340-4 0  9993","l2":"2 27843  98.7056 210.7147 0010495 145.0344 215.1524 14.21328799195723"},{"id":"27858","name":"SCISAT 1","type":"PAYLOAD","l1":"1 27858U 03036A   26203.13801118  .00000466  00000-0  64174-4 0  9990","l2":"2 27858  73.9301 101.9005 0007006 168.2411 191.8931 14.81484604236628"},{"id":"28485","name":"SWIFT","type":"PAYLOAD","l1":"1 28485U 04047A   26203.51172162  .00065667  00000-0  47233-3 0  9992","l2":"2 28485  20.5517 271.7026 0002649 103.4951 256.5791 15.71818487192421"},{"id":"29479","name":"HINODE (SOLAR B)","type":"PAYLOAD","l1":"1 29479U 06041A   26203.00027503  .00000561  00000-0  10463-3 0  9991","l2":"2 29479  98.0548 218.6399 0017621 172.7614 187.3849 14.68664645 59981"},{"id":"29505","name":"SHIJIAN 6 02A (SJ-6 02A)","type":"PAYLOAD","l1":"1 29505U 06046A   26203.97130400  .00005579  00000-0  28331-3 0  9990","l2":"2 29505  97.6352 245.3109 0003821  47.8054 312.3503 15.17308577 77691"},{"id":"29506","name":"SHIJIAN 6 02B (SJ-6 02B)","type":"PAYLOAD","l1":"1 29506U 06046B   26204.00152483  .00000698  00000-0  58709-4 0  9991","l2":"2 29506  97.7145 232.8374 0012466 307.6880  52.3213 15.01446360 76118"},{"id":"33053","name":"GLAST","type":"PAYLOAD","l1":"1 33053U 08029A   26203.65044124  .00002575  00000-0  89461-4 0  9993","l2":"2 33053  25.5828 318.2136 0008237  28.4048 331.6939 15.24105653  1104"},{"id":"36395","name":"SDO","type":"PAYLOAD","l1":"1 36395U 10005A   26202.19615476 -.00000097  00000-0  00000-0 0  9990","l2":"2 36395  34.7200  85.8242 0001647  43.2128 138.3850  1.00277625 60409"},{"id":"36508","name":"CRYOSAT 2","type":"PAYLOAD","l1":"1 36508U 10013A   26203.92000454  .00000068  00000-0  16040-4 0  9993","l2":"2 36508  92.0353 285.9884 0002509  98.7637 261.3854 14.51899898863262"},{"id":"37389","name":"XSAT","type":"PAYLOAD","l1":"1 37389U 11015C   26203.88974466  .00000229  00000-0  11475-3 0  9997","l2":"2 37389  98.3540 179.2170 0012849 235.7965 124.1999 14.25215990792763"},{"id":"38337","name":"GCOM W1","type":"PAYLOAD","l1":"1 38337U 12025A   26203.80333949  .00000316  00000-0  80119-4 0  9999","l2":"2 38337  98.2024 143.8203 0001256  80.3986 308.4401 14.57094785754220"},{"id":"38358","name":"NUSTAR","type":"PAYLOAD","l1":"1 38358U 12031A   26204.00002315  .00007466  00000-0  40392-3 0  9993","l2":"2 38358   6.0250 125.4220 0008683 279.9295 125.2498 15.09092692  1304"},{"id":"39089","name":"NEOSSAT","type":"PAYLOAD","l1":"1 39089U 13009D   26203.74951528  .00000110  00000-0  52735-4 0  9994","l2":"2 39089  98.4196  22.9398 0011851 136.0971 224.1159 14.35837443701840"},{"id":"39091","name":"BRITE-A TUGSAT-1","type":"PAYLOAD","l1":"1 39091U 13009F   26203.73042842  .00000125  00000-0  56887-4 0  9994","l2":"2 39091  98.4015  22.2900 0011137 129.9893 230.2273 14.36554620702150"},{"id":"39197","name":"IRIS","type":"PAYLOAD","l1":"1 39197U 13033A   26203.51820838  .00000794  00000-0  96939-4 0  9997","l2":"2 39197  97.9318  42.6838 0023845 200.2233 159.8040 14.85947122705623"},{"id":"39253","name":"SPRINT A","type":"PAYLOAD","l1":"1 39253U 13049A   26203.92170566  .00000095  00000-0  40277-4 0  9996","l2":"2 39253  29.7218  38.3316 0136936 306.4786  52.3237 13.55547214636272"},{"id":"39265","name":"CASSIOPE","type":"PAYLOAD","l1":"1 39265U 13055A   26203.88166548  .00023213 -44361-6  24899-3 0  9999","l2":"2 39265  80.9137  23.2691 0281579 301.7753  55.6327 15.27691877673115"},{"id":"39422","name":"STSAT 3","type":"PAYLOAD","l1":"1 39422U 13066G   26203.93396426  .00004168  00000-0  31463-3 0  9990","l2":"2 39422  97.6219 173.2459 0008719 273.4689  86.5539 15.02926403689574"}]}